NORAD_CAT_ID,OBJECT_NAME,OBJECT_TYPE,EPOCH,MEAN_MOTION,ECCENTRICITY,INCLINATION,RA_OF_ASC_NODE,ARG_OF_PERICENTER,MEAN_ANOMALY,BSTAR,MEAN_MOTION_DOT,MEAN_MOTION_DDOT,TLE_LINE0,TLE_LINE1,TLE_LINE2,SEMIMAJOR_AXIS,PERIOD,APOGEE,PERIGEE,DECAYED
53928.0,STARLINK-5009,PAYLOAD,2023-12-07 10:31:22,15.08845191,0.0001949,53.2189,39.749,38.4584,321.6547,-3.7512e-05,-8.85e-06,0.0,0 STARLINK-5009,1 53928U 22119AU  23341.43845757 -.00000885  00000-0 -37512-4 0  9993,2 53928  53.2189  39.7490 0001949  38.4584 321.6547 15.08845191 67681,6917.865,95.437,541.078,538.381,0.0
53928.0,STARLINK-5009,PAYLOAD,2023-12-08 10:22:09,15.08835408,0.0001095,53.2187,35.2855,48.697,311.4116,0.00035827,5.418e-05,0.0,0 STARLINK-5009,1 53928U 22119AU  23342.43204870  .00005418  00000-0  35827-3 0  9990,2 53928  53.2187  35.2855 0001095  48.6970 311.4116 15.08835408 67835,6917.894,95.438,540.517,539.002,0.0
53928.0,STARLINK-5009,PAYLOAD,2023-12-09 03:51:25,15.08831924,9.86e-05,53.2194,32.0093,112.1747,247.935,-0.0001183,-2.17e-05,0.0,0 STARLINK-5009,1 53928U 22119AU  23343.16070758 -.00002170  00000-0 -11830-3 0  9999,2 53928  53.2194  32.0093 0000986 112.1747 247.9350 15.08831924 67527,6917.905,95.438,540.452,539.088,0.0
53928.0,STARLINK-5009,PAYLOAD,2023-12-09 10:12:58,15.08826406,8.99e-05,53.2185,30.8193,99.0662,261.0432,-0.00016079,-2.845e-05,0.0,0 STARLINK-5009,1 53928U 22119AU  23343.42567409 -.00002845  00000-0 -16079-3 0  9991,2 53928  53.2185  30.8193 0000899  99.0662 261.0432 15.08826406 67983,6917.922,95.438,540.409,539.165,0.0
53928.0,STARLINK-5009,PAYLOAD,2023-12-10 03:42:11,15.08838739,6.43e-05,53.2174,27.5501,73.6358,286.4705,-7.7856e-05,-1.526e-05,0.0,0 STARLINK-5009,1 53928U 22119AU  23344.15430488 -.00001526  00000-0 -77856-4 0  9994,2 53928  53.2174  27.5501 0000643  73.6358 286.4705 15.08838739 67676,6917.884,95.438,540.194,539.304,0.0
53928.0,STARLINK-5009,PAYLOAD,2023-12-11 08:19:06,15.08848707,8.77e-05,53.2164,22.1868,50.0867,310.0203,0.00029399,4.395e-05,0.0,0 STARLINK-5009,1 53928U 22119AU  23345.34660862  .00004395  00000-0  29399-3 0  9990,2 53928  53.2164  22.1868 0000877  50.0867 310.0203 15.08848707 67858,6917.854,95.437,540.325,539.112,0.0
53928.0,STARLINK-5009,PAYLOAD,2023-12-12 09:45:17,15.08850419,8.87e-05,53.2175,17.44,85.7551,274.3543,-2.2201e-05,-6.41e-06,0.0,0 STARLINK-5009,1 53928U 22119AU  23346.40645310 -.00000641  00000-0 -22201-4 0  9997,2 53928  53.2175  17.4400 0000887  85.7551 274.3543 15.08850419 68016,6917.849,95.437,540.327,539.1,0.0
53928.0,STARLINK-5009,PAYLOAD,2023-12-13 09:36:04,15.08820367,0.0001172,53.2183,12.98,86.6941,273.4185,0.00038923,5.909e-05,0.0,0 STARLINK-5009,1 53928U 22119AU  23347.40005421  .00005909  00000-0  38923-3 0  9998,2 53928  53.2183  12.9800 0001172  86.6941 273.4185 15.08820367 68167,6917.94,95.439,540.616,538.995,0.0
53928.0,STARLINK-5009,PAYLOAD,2023-12-14 07:51:28,15.0882331,0.0001626,53.2195,8.8143,52.3749,307.739,0.0002521,3.725e-05,0.0,0 STARLINK-5009,1 53928U 22119AU  23348.32741708  .00003725  00000-0  25210-3 0  9994,2 53928  53.2195   8.8143 0001626  52.3749 307.7390 15.08823310 68726,6917.931,95.439,540.921,538.672,0.0
53928.0,STARLINK-5009,PAYLOAD,2023-12-15 04:31:29,15.08841801,0.0001267,53.2184,4.95,65.6161,294.4963,2.1479e-05,5.4e-07,0.0,0 STARLINK-5009,1 53928U 22119AU  23349.18853176  .00000054  00000-0  21479-4 0  9998,2 53928  53.2184   4.9500 0001267  65.6161 294.4963 15.08841801 68435,6917.875,95.437,540.616,538.863,0.0
53928.0,STARLINK-5009,PAYLOAD,2023-12-15 06:06:52,15.08844743,0.0001181,53.2186,4.6497,74.3047,285.8075,-1.2187e-05,-4.82e-06,0.0,0 STARLINK-5009,1 53928U 22119AU  23349.25477048 -.00000482  00000-0 -12187-4 0  9999,2 53928  53.2186   4.6497 0001181  74.3047 285.8075 15.08844743 68867,6917.866,95.437,540.548,538.914,0.0
53928.0,STARLINK-5009,PAYLOAD,2023-12-16 05:57:39,15.08837262,0.0001322,53.2181,0.1924,59.5281,300.5842,-1.2237e-05,-4.83e-06,0.0,0 STARLINK-5009,1 53928U 22119AU  23350.24837862 -.00000483  00000-0 -12237-4 0  9991,2 53928  53.2181   0.1924 0001322  59.5281 300.5842 15.08837262 68595,6917.889,95.438,540.668,538.839,0.0
53928.0,STARLINK-5009,PAYLOAD,2023-12-17 07:23:49,15.08840417,0.0001325,53.2175,355.4284,88.53,271.5844,9.8908e-05,1.287e-05,0.0,0 STARLINK-5009,1 53928U 22119AU  23351.30821395  .00001287  00000-0  98908-4 0  9993,2 53928  53.2175 355.4284 0001325  88.5300 271.5844 15.08840417 68753,6917.879,95.438,540.661,538.827,0.0
53928.0,STARLINK-5009,PAYLOAD,2023-12-18 05:39:13,15.08846435,0.000136,53.2169,351.2663,98.0728,262.0418,0.00019388,2.8e-05,0.0,0 STARLINK-5009,1 53928U 22119AU  23352.23556937  .00002800  00000-0  19388-3 0  9999,2 53928  53.2169 351.2663 0001360  98.0728 262.0418 15.08846435 69311,6917.861,95.437,540.667,538.785,0.0
53928.0,STARLINK-5009,PAYLOAD,2023-12-19 03:54:38,15.08825849,0.0001696,53.2169,347.1124,129.0568,231.0575,3.8105e-05,3.18e-06,0.0,0 STARLINK-5009,1 53928U 22119AU  23353.16294758  .00000318  00000-0  38105-4 0  9993,2 53928  53.2169 347.1124 0001696 129.0568 231.0575 15.08825849 69031,6917.924,95.438,540.962,538.615,0.0
53928.0,STARLINK-5009,PAYLOAD,2023-12-19 07:05:24,15.08830471,0.0001432,53.2176,346.5161,109.5788,250.5359,3.4492e-05,2.61e-06,0.0,0 STARLINK-5009,1 53928U 22119AU  23353.29542647  .00000261  00000-0  34492-4 0  9992,2 53928  53.2176 346.5161 0001432 109.5788 250.5359 15.08830471 69479,6917.91,95.438,540.765,538.784,0.0
53928.0,STARLINK-5009,PAYLOAD,2023-12-20 03:45:25,15.08841014,0.00014,53.2175,342.6497,80.1017,280.0133,-1.4126e-05,-5.13e-06,0.0,0 STARLINK-5009,1 53928U 22119AU  23354.15654473 -.00000513  00000-0 -14126-4 0  9993,2 53928  53.2175 342.6497 0001400  80.1017 280.0133 15.08841014 69182,6917.877,95.437,540.711,538.774,0.0
53928.0,STARLINK-5009,PAYLOAD,2023-12-20 06:56:11,15.08839927,0.0001404,53.2175,342.0555,101.5255,258.5895,5.8314e-05,6.4e-06,0.0,0 STARLINK-5009,1 53928U 22119AU  23354.28902312  .00000640  00000-0  58314-4 0  9991,2 53928  53.2175 342.0555 0001404 101.5255 258.5895 15.08839927 69621,6917.881,95.438,540.717,538.774,0.0
53928.0,STARLINK-5009,PAYLOAD,2023-12-21 03:36:11,15.08848977,0.0001372,53.2177,338.1912,96.3124,263.8024,0.00021823,3.188e-05,0.0,0 STARLINK-5009,1 53928U 22119AU  23355.15013474  .00003188  00000-0  21823-3 0  9994,2 53928  53.2177 338.1912 0001372  96.3124 263.8024 15.08848977 69332,6917.853,95.437,540.667,538.769,0.0
53928.0,STARLINK-5009,PAYLOAD,2023-12-21 06:46:58,15.08855598,0.0001433,53.2166,337.5991,91.7118,268.4038,0.0003822,5.803e-05,0.0,0 STARLINK-5009,1 53928U 22119AU  23355.28261610  .00005803  00000-0  38220-3 0  9990,2 53928  53.2166 337.5991 0001433  91.7118 268.4038 15.08855598 69771,6917.833,95.437,540.689,538.706,0.0
53928.0,STARLINK-5009,PAYLOAD,2023-12-22 05:02:22,15.08837263,0.0001415,53.2161,333.4383,101.4825,258.6326,5.413e-05,5.74e-06,0.0,0 STARLINK-5009,1 53928U 22119AU  23356.20998831  .00000574  00000-0  54130-4 0  9994,2 53928  53.2161 333.4383 0001415 101.4825 258.6326 15.08837263 69499,6917.889,95.438,540.733,538.775,0.0
53928.0,STARLINK-5009,PAYLOAD,2023-12-23 08:03:55,15.08851823,0.000157,53.218,328.3676,113.4175,246.6982,0.00039252,5.966e-05,0.0,0 STARLINK-5009,1 53928U 22119AU  23357.33606144  .00005966  00000-0  39252-3 0  9999,2 53928  53.2180 328.3676 0001570 113.4175 246.6982 15.08851823 69663,6917.844,95.437,540.795,538.623,0.0
53928.0,STARLINK-5009,PAYLOAD,2023-12-23 22:22:24,15.08838939,0.00014,53.218,325.6985,76.3068,283.808,0.0001293,1.77e-05,0.0,0 STARLINK-5009,1 53928U 22119AU  23357.93222925  .00001770  00000-0  12930-3 0  9999,2 53928  53.2180 325.6985 0001400  76.3068 283.8080 15.08838939 70179,6917.884,95.438,540.717,538.78,0.0
53928.0,STARLINK-5009,PAYLOAD,2023-12-24 03:08:33,15.08843252,0.0001435,53.217,324.8075,80.5258,279.5897,0.00021947,3.207e-05,0.0,0 STARLINK-5009,1 53928U 22119AU  23358.13094838  .00003207  00000-0  21947-3 0  9997,2 53928  53.2170 324.8075 0001435  80.5258 279.5897 15.08843252 69782,6917.87,95.437,540.728,538.743,0.0
53928.0,STARLINK-5009,PAYLOAD,2023-12-24 22:13:11,15.08843924,0.0001496,53.2174,321.2396,99.521,260.5951,0.00033755,5.089e-05,0.0,0 STARLINK-5009,1 53928U 22119AU  23358.92582801  .00005089  00000-0  33755-3 0  9996,2 53928  53.2174 321.2396 0001496  99.5210 260.5951 15.08843924 70327,6917.868,95.437,540.768,538.698,0.0
53928.0,STARLINK-5009,PAYLOAD,2023-12-25 07:45:29,15.08860112,0.0001383,53.2164,319.4498,103.1524,256.9622,0.00086152,0.00013457,0.0,0 STARLINK-5009,1 53928U 22119AU  23359.32326156  .00013457  00000-0  86152-3 0  9997,2 53928  53.2164 319.4498 0001383 103.1524 256.9622 15.08860112 69963,6917.819,95.436,540.641,538.727,0.0
53928.0,STARLINK-5009,PAYLOAD,2023-12-25 20:28:35,15.08842013,0.0001614,53.2168,317.0781,72.4587,287.6581,5.6095e-06,-1.99e-06,0.0,0 STARLINK-5009,1 53928U 22119AU  23359.85318631 -.00000199  00000-0  56095-5 0  9999,2 53928  53.2168 317.0781 0001614  72.4587 287.6581 15.08842013 70046,6917.874,95.437,540.856,538.623,0.0
53928.0,STARLINK-5009,PAYLOAD,2023-12-25 22:03:58,15.0882923,7.19e-05,53.2166,316.7794,19.109,340.9929,-0.00028913,-4.885e-05,0.0,0 STARLINK-5009,1 53928U 22119AU  23359.91942793 -.00004885  00000-0 -28913-3 0  9991,2 53928  53.2166 316.7794 0000719  19.1090 340.9929 15.08829230 70478,6917.913,95.438,540.276,539.281,0.0
53928.0,STARLINK-5009,PAYLOAD,2023-12-26 04:25:30,15.08848007,0.0001456,53.2165,315.5864,109.2801,250.8349,0.00042322,6.455e-05,0.0,0 STARLINK-5009,1 53928U 22119AU  23360.18438443  .00006455  00000-0  42322-3 0  9997,2 53928  53.2165 315.5864 0001456 109.2801 250.8349 15.08848007 70515,6917.856,95.437,540.728,538.714,0.0
53928.0,STARLINK-5009,PAYLOAD,2023-12-26 20:19:22,15.08839732,0.0001723,53.2177,312.6132,116.2035,243.9134,0.00043969,6.717e-05,0.0,0 STARLINK-5009,1 53928U 22119AU  23360.84678776  .00006717  00000-0  43969-3 0  9994,2 53928  53.2177 312.6132 0001723 116.2035 243.9134 15.08839732 70619,6917.881,95.438,540.938,538.554,0.0
